start=new Date('2022-01-14T00:00:00.000Z').valueOf();
sats=[{"ECCENTRICITY":"0.00017090","FILE":"3272312","APOAPSIS":"548.376","GP_ID":"193811771","REF_FRAME":"TEME","INCLINATION":"53.0555","BSTAR":"0.00038558000000","EPHEMERIS_TYPE":"0","PERIOD":"95.592","MEAN_MOTION_DDOT":"0.0000000000000","PERIAPSIS":"546.008","TLE_LINE2":"2 47567  53.0555   7.1817 0001709  63.5026 296.6138 15.06407033 52019","OBJECT_NAME":"STARLINK-1966","CLASSIFICATION_TYPE":"U","SITE":"AFETR","DECAY_DATE":null,"ELEMENT_SET_NO":"999","MEAN_MOTION_DOT":"0.00005467","MEAN_ANOMALY":"296.6138","OBJECT_ID":"2021-009V","MEAN_ELEMENT_THEORY":"SGP4","EPOCH":"2022-01-13T16:43:41.007360","TLE_LINE1":"1 47567U 21009V   22013.69700240  .00005467  00000-0  38558-3 0  9991","NORAD_CAT_ID":"47567","CENTER_NAME":"EARTH","RA_OF_ASC_NODE":"7.1817","TIME_SYSTEM":"UTC","OBJECT_TYPE":"PAYLOAD","RCS_SIZE":"LARGE","REV_AT_EPOCH":"5201","SEMIMAJOR_AXIS":"6925.327","ARG_OF_PERICENTER":"63.5026","MEAN_MOTION":"15.06407033","COUNTRY_CODE":"US","LAUNCH_DATE":"2021-02-04"},{"APOAPSIS":"548.210","GP_ID":"193779718","ECCENTRICITY":"0.00014400","FILE":"3271980","INCLINATION":"53.0555","BSTAR":"0.00007867400000","REF_FRAME":"TEME","MEAN_MOTION_DDOT":"0.0000000000000","PERIOD":"95.592","EPHEMERIS_TYPE":"0","DECAY_DATE":null,"SITE":"AFETR","CLASSIFICATION_TYPE":"U","MEAN_MOTION_DOT":"0.00000891","ELEMENT_SET_NO":"999","PERIAPSIS":"546.215","TLE_LINE2":"2 47568  53.0555   8.2520 0001440  60.4117 299.7016 15.06400328 51986","OBJECT_NAME":"STARLINK-1967","OBJECT_ID":"2021-009W","MEAN_ANOMALY":"299.7016","TIME_SYSTEM":"UTC","OBJECT_TYPE":"PAYLOAD","RCS_SIZE":"LARGE","CENTER_NAME":"EARTH","TLE_LINE1":"1 47568U 21009W   22013.45741898  .00000891  00000-0  78674-4 0  9990","NORAD_CAT_ID":"47568","MEAN_ELEMENT_THEORY":"SGP4","EPOCH":"2022-01-13T10:58:40.999872","RA_OF_ASC_NODE":"8.2520","REV_AT_EPOCH":"5198","LAUNCH_DATE":"2021-02-04","MEAN_MOTION":"15.06400328","COUNTRY_CODE":"US","SEMIMAJOR_AXIS":"6925.348","ARG_OF_PERICENTER":"60.4117"},{"PERIOD":"93.375","MEAN_MOTION_DDOT":"0.0000000000000","EPHEMERIS_TYPE":"0","SITE":"AFETR","CLASSIFICATION_TYPE":"U","DECAY_DATE":null,"ELEMENT_SET_NO":"999","MEAN_MOTION_DOT":"0.00006847","PERIAPSIS":"437.933","TLE_LINE2":"2 47569  53.0527 326.7281 0002642  19.6809 340.4297 15.42161099 52566","OBJECT_NAME":"STARLINK-1968","APOAPSIS":"441.536","GP_ID":"193779968","ECCENTRICITY":"0.00026420","FILE":"3271980","INCLINATION":"53.0527","BSTAR":"0.00016664000000","REF_FRAME":"TEME","REV_AT_EPOCH":"5256","LAUNCH_DATE":"2021-02-04","ARG_OF_PERICENTER":"19.6809","SEMIMAJOR_AXIS":"6817.869","COUNTRY_CODE":"US","MEAN_MOTION":"15.42161099","OBJECT_ID":"2021-009X","MEAN_ANOMALY":"340.4297","OBJECT_TYPE":"PAYLOAD","TIME_SYSTEM":"UTC","RCS_SIZE":"LARGE","EPOCH":"2022-01-13T08:09:06.458976","MEAN_ELEMENT_THEORY":"SGP4","TLE_LINE1":"1 47569U 21009X   22013.33965809  .00006847  00000-0  16664-3 0  9995","CENTER_NAME":"EARTH","NORAD_CAT_ID":"47569","RA_OF_ASC_NODE":"326.7281"},{"TIME_SYSTEM":"UTC","OBJECT_TYPE":"PAYLOAD","RCS_SIZE":"LARGE","CENTER_NAME":"EARTH","TLE_LINE1":"1 47570U 21009Y   22013.58274676  .00000600  00000-0  59192-4 0  9994","NORAD_CAT_ID":"47570","MEAN_ELEMENT_THEORY":"SGP4","EPOCH":"2022-01-13T13:59:09.320064","RA_OF_ASC_NODE":"327.6882","OBJECT_ID":"2021-009Y","MEAN_ANOMALY":"291.6852","LAUNCH_DATE":"2021-02-04","MEAN_MOTION":"15.06403805","COUNTRY_CODE":"US","SEMIMAJOR_AXIS":"6925.337","ARG_OF_PERICENTER":"68.4336","REV_AT_EPOCH":"5256","INCLINATION":"53.0550","BSTAR":"0.00005919200000","REF_FRAME":"TEME","APOAPSIS":"548.498","GP_ID":"193780219","ECCENTRICITY":"0.00018710","FILE":"3271980","DECAY_DATE":null,"CLASSIFICATION_TYPE":"U","SITE":"AFETR","MEAN_MOTION_DOT":"0.00000600","ELEMENT_SET_NO":"999","PERIAPSIS":"545.906","TLE_LINE2":"2 47570  53.0550 327.6882 0001871  68.4336 291.6852 15.06403805 52569","OBJECT_NAME":"STARLINK-1969","MEAN_MOTION_DDOT":"0.0000000000000","PERIOD":"95.592","EPHEMERIS_TYPE":"0"},{"EPHEMERIS_TYPE":"0","PERIOD":"95.592","MEAN_MOTION_DDOT":"0.0000000000000","OBJECT_NAME":"STARLINK-1970","TLE_LINE2":"2 47571  53.0555 337.6501 0001889  69.8046 290.3146 15.06400122 52422","PERIAPSIS":"545.905","ELEMENT_SET_NO":"999","MEAN_MOTION_DOT":"0.00001469","SITE":"AFETR","CLASSIFICATION_TYPE":"U","DECAY_DATE":null,"FILE":"3272312","ECCENTRICITY":"0.00018890","APOAPSIS":"548.521","GP_ID":"193812272","REF_FRAME":"TEME","BSTAR":"0.00011750000000","INCLINATION":"53.0555","REV_AT_EPOCH":"5242","SEMIMAJOR_AXIS":"6925.348","ARG_OF_PERICENTER":"69.8046","COUNTRY_CODE":"US","MEAN_MOTION":"15.06400122","LAUNCH_DATE":"2021-02-04","MEAN_ANOMALY":"290.3146","OBJECT_ID":"2021-009Z","RA_OF_ASC_NODE":"337.6501","EPOCH":"2022-01-13T14:13:44.228928","MEAN_ELEMENT_THEORY":"SGP4","TLE_LINE1":"1 47571U 21009Z   22013.59287302  .00001469  00000-0  11750-3 0  9997","NORAD_CAT_ID":"47571","CENTER_NAME":"EARTH","RCS_SIZE":"LARGE","TIME_SYSTEM":"UTC","OBJECT_TYPE":"PAYLOAD"},{"REV_AT_EPOCH":"5235","LAUNCH_DATE":"2021-02-04","COUNTRY_CODE":"US","MEAN_MOTION":"15.06407225","SEMIMAJOR_AXIS":"6925.326","ARG_OF_PERICENTER":"69.6643","OBJECT_ID":"2021-009AA","MEAN_ANOMALY":"290.4558","RCS_SIZE":"LARGE","OBJECT_TYPE":"PAYLOAD","TIME_SYSTEM":"UTC","RA_OF_ASC_NODE":"339.8053","TLE_LINE1":"1 47572U 21009AA  22013.11001659  .00000976  00000-0  84383-4 0  9990","NORAD_CAT_ID":"47572","CENTER_NAME":"EARTH","EPOCH":"2022-01-13T02:38:25.433376","MEAN_ELEMENT_THEORY":"SGP4","PERIOD":"95.592","MEAN_MOTION_DDOT":"0.0000000000000","EPHEMERIS_TYPE":"0","MEAN_MOTION_DOT":"0.00000976","ELEMENT_SET_NO":"999","DECAY_DATE":null,"CLASSIFICATION_TYPE":"U","SITE":"AFETR","OBJECT_NAME":"STARLINK-1971","TLE_LINE2":"2 47572  53.0585 339.8053 0001979  69.6643 290.4558 15.06407225 52354","PERIAPSIS":"545.821","APOAPSIS":"548.562","GP_ID":"193779218","FILE":"3271980","ECCENTRICITY":"0.00019790","BSTAR":"0.00008438300000","INCLINATION":"53.0585","REF_FRAME":"TEME"},{"MEAN_ANOMALY":"298.4707","OBJECT_ID":"2021-009AB","RA_OF_ASC_NODE":"337.5203","EPOCH":"2022-01-13T14:50:53.810304","MEAN_ELEMENT_THEORY":"SGP4","NORAD_CAT_ID":"47573","TLE_LINE1":"1 47573U 21009AB  22013.61867836  .00002141  00000-0  16259-3 0  9995","CENTER_NAME":"EARTH","RCS_SIZE":"LARGE","TIME_SYSTEM":"UTC","OBJECT_TYPE":"PAYLOAD","REV_AT_EPOCH":"5242","ARG_OF_PERICENTER":"61.6460","SEMIMAJOR_AXIS":"6925.353","COUNTRY_CODE":"US","MEAN_MOTION":"15.06398579","LAUNCH_DATE":"2021-02-04","FILE":"3272312","ECCENTRICITY":"0.00017580","APOAPSIS":"548.435","GP_ID":"193811270","REF_FRAME":"TEME","BSTAR":"0.00016259000000","INCLINATION":"53.0569","EPHEMERIS_TYPE":"0","MEAN_MOTION_DDOT":"0.0000000000000","PERIOD":"95.592","OBJECT_NAME":"STARLINK-1975","TLE_LINE2":"2 47573  53.0569 337.5203 0001758  61.6460 298.4707 15.06398579 52426","PERIAPSIS":"546.000","ELEMENT_SET_NO":"999","MEAN_MOTION_DOT":"0.00002141","SITE":"AFETR","CLASSIFICATION_TYPE":"U","DECAY_DATE":null},{"MEAN_ELEMENT_THEORY":"SGP4","EPOCH":"2022-01-13T12:02:22.776864","CENTER_NAME":"EARTH","TLE_LINE1":"1 47574U 21009AC  22013.50165251  .00004273  00000-0  30554-3 0  9998","NORAD_CAT_ID":"47574","RA_OF_ASC_NODE":"8.0489","TIME_SYSTEM":"UTC","OBJECT_TYPE":"PAYLOAD","RCS_SIZE":"LARGE","MEAN_ANOMALY":"296.0094","OBJECT_ID":"2021-009AC","ARG_OF_PERICENTER":"64.1069","SEMIMAJOR_AXIS":"6925.341","COUNTRY_CODE":"US","MEAN_MOTION":"15.06402473","LAUNCH_DATE":"2021-02-04","REV_AT_EPOCH":"5198","REF_FRAME":"TEME","INCLINATION":"53.0560","BSTAR":"0.00030554000000","ECCENTRICITY":"0.00016860","FILE":"3271980","GP_ID":"193780720","APOAPSIS":"548.374","PERIAPSIS":"546.038","TLE_LINE2":"2 47574  53.0560   8.0489 0001686  64.1069 296.0094 15.06402473 51989","OBJECT_NAME":"STARLINK-1976","SITE":"AFETR","CLASSIFICATION_TYPE":"U","DECAY_DATE":null,"ELEMENT_SET_NO":"999","MEAN_MOTION_DOT":"0.00004273","EPHEMERIS_TYPE":"0","PERIOD":"95.592","MEAN_MOTION_DDOT":"0.0000000000000"},{"ECCENTRICITY":"0.00014810","FILE":"3272312","GP_ID":"193811772","APOAPSIS":"548.227","REF_FRAME":"TEME","BSTAR":"0.00009032000000","INCLINATION":"53.0566","EPHEMERIS_TYPE":"0","MEAN_MOTION_DDOT":"0.0000000000000","PERIOD":"95.592","OBJECT_NAME":"STARLINK-1977","TLE_LINE2":"2 47575  53.0566   7.2046 0001481  66.3790 293.7355 15.06403824 52014","PERIAPSIS":"546.176","ELEMENT_SET_NO":"999","MEAN_MOTION_DOT":"0.00001064","CLASSIFICATION_TYPE":"U","SITE":"AFETR","DECAY_DATE":null,"MEAN_ANOMALY":"293.7355","OBJECT_ID":"2021-009AD","RA_OF_ASC_NODE":"7.2046","MEAN_ELEMENT_THEORY":"SGP4","EPOCH":"2022-01-13T16:33:04.355136","CENTER_NAME":"EARTH","TLE_LINE1":"1 47575U 21009AD  22013.68963374  .00001064  00000-0  90320-4 0  9993","NORAD_CAT_ID":"47575","RCS_SIZE":"LARGE","OBJECT_TYPE":"PAYLOAD","TIME_SYSTEM":"UTC","REV_AT_EPOCH":"5201","SEMIMAJOR_AXIS":"6925.337","ARG_OF_PERICENTER":"66.3790","MEAN_MOTION":"15.06403824","COUNTRY_CODE":"US","LAUNCH_DATE":"2021-02-04"},{"COUNTRY_CODE":"US","MEAN_MOTION":"15.06392955","SEMIMAJOR_AXIS":"6925.370","ARG_OF_PERICENTER":"55.0176","LAUNCH_DATE":"2021-02-04","REV_AT_EPOCH":"5260","RA_OF_ASC_NODE":"326.4590","TLE_LINE1":"1 47576U 21009AE  22013.85550164  .00000369  00000-0  43668-4 0  9992","NORAD_CAT_ID":"47576","CENTER_NAME":"EARTH","EPOCH":"2022-01-13T20:31:55.341696","MEAN_ELEMENT_THEORY":"SGP4","RCS_SIZE":"LARGE","TIME_SYSTEM":"UTC","OBJECT_TYPE":"PAYLOAD","MEAN_ANOMALY":"305.1004","OBJECT_ID":"2021-009AE","OBJECT_NAME":"STARLINK-1978","TLE_LINE2":"2 47576  53.0541 326.4590 0002035  55.0176 305.1004 15.06392955 52603","PERIAPSIS":"545.826","MEAN_MOTION_DOT":"0.00000369","ELEMENT_SET_NO":"999","DECAY_DATE":null,"SITE":"AFETR","CLASSIFICATION_TYPE":"U","EPHEMERIS_TYPE":"0","MEAN_MOTION_DDOT":"0.0000000000000","PERIOD":"95.593","REF_FRAME":"TEME","BSTAR":"0.00004366800000","INCLINATION":"53.0541","FILE":"3272312","ECCENTRICITY":"0.00020350","GP_ID":"193810520","APOAPSIS":"548.644"}];
